PANDORA
1 99152U 80229J   26025.99315972  .00000000  00000-0  37770-3 0    07
2 99152  97.7989  26.9203 0003948 225.3549  63.0773 14.87758103    03
